HST                     
1 20580U 90037B   24187.79328495  .00005482  00000+0  25305-3 0  9999
2 20580  28.4668 220.4495 0002380 230.3875 129.6507 15.17987109680123
